0 ORBCOMM FM 11
1 25114U 97084C   13282.74249422  .00000622  00000-0  26003-3 0  1717
2 25114 045.0156 126.8258 0006777 019.6007 025.9159 14.36115955826544
0 ORBCOMM FM 11
1 25114U 97084C   13283.78998942  .00000687  00000-0  28207-3 0  1720
2 25114 045.0157 121.8755 0006688 025.4358 040.8890 14.36118250826704
0 ORBCOMM FM 11
1 25114U 97084C   13286.43617873  .00000644  00000-0  26722-3 0  1741
2 25114 045.0160 109.3702 0006523 040.2670 040.1736 14.36122618827088
0 ORBCOMM FM 11
1 25114U 97084C   13287.46804709  .00000786  00000-0  31577-3 0  1753
2 25114 045.0162 104.4939 0006459 046.1497 334.2574 14.36124637827235
0 ORBCOMM FM 11
1 25114U 97084C   13288.59881512  .00001053  00000-0  40629-3 0  1762
2 25114 045.0165 099.1501 0006432 052.4836 059.7136 14.36127328827391
0 ORBCOMM FM 11
1 25114U 97084C   13290.47398517  .00001035  00000-0  40021-3 0  1777
2 25114 045.0168 090.2888 0006343 063.4398 032.8899 14.36132503827669
0 ORBCOMM FM 11
1 25114U 97084C   13291.79681737  .00001063  00000-0  40973-3 0  1780
2 25114 045.0170 084.0376 0006301 071.1025 030.9939 14.36135506827853
0 ORBCOMM FM 11
1 25114U 97084C   13292.85048696  .00001210  00000-0  45958-3 0  1792
2 25114 045.0172 079.0584 0006292 077.0993 077.8358 14.36137934828008
0 ORBCOMM FM 11
1 25114U 97084C   13293.89070910  .00001243  00000-0  47095-3 0  1803
2 25114 045.0174 074.1426 0006282 083.1126 055.0797 14.36141441828155
0 ORBCOMM FM 11
1 25114U 97084C   13295.46961161  .00001382  00000-0  51799-3 0  1816
2 25114 045.0176 066.6813 0006329 092.0102 297.1891 14.36146136828372
